STARLINK-30327          
1 57707U 23129K   26068.51769668  .00007635  00000+0  29314-3 0  9995
2 57707  42.9974  85.9834 0023030  70.8320 289.5022 15.26626807140903
STARLINK-33797          
1 63448U 25069R   26068.46971127  .00033376  00000+0  11328-2 0  9994
2 63448  53.1596 143.3135 0001312  99.1189 260.9960 15.30232262 53321
